start=new Date('2021-10-23T00:00:00.000Z').valueOf();
sats=[{"DECAY_DATE":null,"CLASSIFICATION_TYPE":"U","PERIAPSIS":"546.428","CENTER_NAME":"EARTH","SITE":"AFETR","SEMIMAJOR_AXIS":"6925.399","MEAN_MOTION_DDOT":"0.0000000000000","EPHEMERIS_TYPE":"0","OBJECT_ID":"2020-062D","BSTAR":"0.00010153000000","FILE":"3178676","MEAN_MOTION":"15.06383607","RA_OF_ASC_NODE":"335.9917","MEAN_MOTION_DOT":"0.00001231","EPOCH":"2021-10-22T10:14:16.987200","APOAPSIS":"548.100","OBJECT_NAME":"STARLINK-1686","REF_FRAME":"TEME","MEAN_ANOMALY":"268.5550","RCS_SIZE":"LARGE","GP_ID":"187902746","NORAD_CAT_ID":"46328","COUNTRY_CODE":"US","ECCENTRICITY":"0.00012070","TIME_SYSTEM":"UTC","MEAN_ELEMENT_THEORY":"SGP4","ELEMENT_SET_NO":"999","REV_AT_EPOCH":"6354","OBJECT_TYPE":"PAYLOAD","LAUNCH_DATE":"2020-09-03","PERIOD":"95.593","INCLINATION":"53.0556","ARG_OF_PERICENTER":"91.5578","TLE_LINE1":"1 46328U 20062D   21295.42658550  .00001231  00000-0  10153-3 0  9997","TLE_LINE2":"2 46328  53.0556 335.9917 0001207  91.5578 268.5550 15.06383607 63549"},{"MEAN_ELEMENT_THEORY":"SGP4","TIME_SYSTEM":"UTC","ELEMENT_SET_NO":"999","ECCENTRICITY":"0.00013360","RCS_SIZE":"LARGE","GP_ID":"187902497","NORAD_CAT_ID":"46329","COUNTRY_CODE":"US","REF_FRAME":"TEME","MEAN_ANOMALY":"281.9089","TLE_LINE2":"2 46329  53.0553 336.1345 0001336  78.2050 281.9089 15.06392051 63533","TLE_LINE1":"1 46329U 20062E   21295.39340990 -.00000553  00000-0 -18233-4 0  9996","ARG_OF_PERICENTER":"78.2050","PERIOD":"95.593","INCLINATION":"53.0553","OBJECT_TYPE":"PAYLOAD","LAUNCH_DATE":"2020-09-03","REV_AT_EPOCH":"6353","MEAN_MOTION_DDOT":"0.0000000000000","SEMIMAJOR_AXIS":"6925.373","SITE":"AFETR","CENTER_NAME":"EARTH","DECAY_DATE":null,"CLASSIFICATION_TYPE":"U","PERIAPSIS":"546.313","OBJECT_NAME":"STARLINK-1695","APOAPSIS":"548.163","MEAN_MOTION_DOT":"-0.00000553","EPOCH":"2021-10-22T09:26:30.615360","RA_OF_ASC_NODE":"336.1345","OBJECT_ID":"2020-062E","FILE":"3178676","MEAN_MOTION":"15.06392051","BSTAR":"-0.00001823300000","EPHEMERIS_TYPE":"0"},{"MEAN_MOTION_DDOT":"0.0000000000000","SEMIMAJOR_AXIS":"6925.358","SITE":"AFETR","CENTER_NAME":"EARTH","PERIAPSIS":"546.394","CLASSIFICATION_TYPE":"U","DECAY_DATE":null,"OBJECT_NAME":"STARLINK-1710","APOAPSIS":"548.053","MEAN_MOTION_DOT":"0.00001419","EPOCH":"2021-10-22T12:21:38.414016","RA_OF_ASC_NODE":"335.5954","FILE":"3179071","BSTAR":"0.00011417000000","MEAN_MOTION":"15.06396791","OBJECT_ID":"2020-062F","EPHEMERIS_TYPE":"0","TIME_SYSTEM":"UTC","ELEMENT_SET_NO":"999","MEAN_ELEMENT_THEORY":"SGP4","ECCENTRICITY":"0.00011980","COUNTRY_CODE":"US","NORAD_CAT_ID":"46330","GP_ID":"187933592","RCS_SIZE":"LARGE","MEAN_ANOMALY":"273.5159","REF_FRAME":"TEME","TLE_LINE2":"2 46330  53.0548 335.5954 0001198  86.5967 273.5159 15.06396791 63566","TLE_LINE1":"1 46330U 20062F   21295.51502794  .00001419  00000-0  11417-3 0  9990","ARG_OF_PERICENTER":"86.5967","INCLINATION":"53.0548","PERIOD":"95.592","OBJECT_TYPE":"PAYLOAD","LAUNCH_DATE":"2020-09-03","REV_AT_EPOCH":"6356"},{"SEMIMAJOR_AXIS":"6925.423","MEAN_MOTION_DDOT":"0.0000000000000","PERIAPSIS":"546.436","CLASSIFICATION_TYPE":"U","DECAY_DATE":null,"SITE":"AFETR","CENTER_NAME":"EARTH","APOAPSIS":"548.140","OBJECT_NAME":"STARLINK-1719","MEAN_MOTION_DOT":"0.00001309","EPOCH":"2021-10-22T16:23:11.548320","FILE":"3179071","BSTAR":"0.00010679000000","MEAN_MOTION":"15.06375815","OBJECT_ID":"2020-062G","EPHEMERIS_TYPE":"0","RA_OF_ASC_NODE":"354.8491","MEAN_ELEMENT_THEORY":"SGP4","TIME_SYSTEM":"UTC","ELEMENT_SET_NO":"999","COUNTRY_CODE":"US","GP_ID":"187934344","NORAD_CAT_ID":"46331","RCS_SIZE":"LARGE","MEAN_ANOMALY":"274.5951","REF_FRAME":"TEME","ECCENTRICITY":"0.00012300","ARG_OF_PERICENTER":"85.5179","TLE_LINE2":"2 46331  53.0563 354.8491 0001230  85.5179 274.5951 15.06375815 63302","TLE_LINE1":"1 46331U 20062G   21295.68277255  .00001309  00000-0  10679-3 0  9997","REV_AT_EPOCH":"6330","INCLINATION":"53.0563","PERIOD":"95.594","LAUNCH_DATE":"2020-09-03","OBJECT_TYPE":"PAYLOAD"},{"RA_OF_ASC_NODE":"355.3869","EPHEMERIS_TYPE":"0","OBJECT_ID":"2020-062H","MEAN_MOTION":"15.06385738","FILE":"3179071","BSTAR":"0.00013862000000","EPOCH":"2021-10-22T13:28:00.809472","MEAN_MOTION_DOT":"0.00001783","OBJECT_NAME":"STARLINK-1721","APOAPSIS":"548.108","SITE":"AFETR","CENTER_NAME":"EARTH","DECAY_DATE":null,"CLASSIFICATION_TYPE":"U","PERIAPSIS":"546.406","SEMIMAJOR_AXIS":"6925.392","MEAN_MOTION_DDOT":"0.0000000000000","OBJECT_TYPE":"PAYLOAD","LAUNCH_DATE":"2020-09-03","PERIOD":"95.593","INCLINATION":"53.0546","REV_AT_EPOCH":"6328","TLE_LINE1":"1 46332U 20062H   21295.56112048  .00001783  00000-0  13862-3 0  9996","TLE_LINE2":"2 46332  53.0546 355.3869 0001229  96.3239 263.7890 15.06385738 63288","ARG_OF_PERICENTER":"96.3239","ECCENTRICITY":"0.00012290","REF_FRAME":"TEME","MEAN_ANOMALY":"263.7890","RCS_SIZE":"LARGE","GP_ID":"187934095","NORAD_CAT_ID":"46332","COUNTRY_CODE":"US","TIME_SYSTEM":"UTC","MEAN_ELEMENT_THEORY":"SGP4","ELEMENT_SET_NO":"999"},{"SEMIMAJOR_AXIS":"6925.385","MEAN_MOTION_DDOT":"0.0000000000000","SITE":"AFETR","CENTER_NAME":"EARTH","PERIAPSIS":"546.320","DECAY_DATE":null,"CLASSIFICATION_TYPE":"U","MEAN_MOTION_DOT":"0.00001334","EPOCH":"2021-10-22T12:13:41.921472","OBJECT_NAME":"STARLINK-1723","APOAPSIS":"548.181","RA_OF_ASC_NODE":"355.6266","EPHEMERIS_TYPE":"0","BSTAR":"0.00010845000000","FILE":"3178804","MEAN_MOTION":"15.06387973","OBJECT_ID":"2020-062J","MEAN_ELEMENT_THEORY":"SGP4","ELEMENT_SET_NO":"999","TIME_SYSTEM":"UTC","ECCENTRICITY":"0.00013440","MEAN_ANOMALY":"286.1105","REF_FRAME":"TEME","COUNTRY_CODE":"US","GP_ID":"187906256","RCS_SIZE":"LARGE","NORAD_CAT_ID":"46333","TLE_LINE1":"1 46333U 20062J   21295.50951298  .00001334  00000-0  10845-3 0  9999","TLE_LINE2":"2 46333  53.0557 355.6266 0001344  74.0032 286.1105 15.06387973 63457","ARG_OF_PERICENTER":"74.0032","LAUNCH_DATE":"2020-09-03","OBJECT_TYPE":"PAYLOAD","INCLINATION":"53.0557","PERIOD":"95.593","REV_AT_EPOCH":"6345"},{"ELEMENT_SET_NO":"999","TIME_SYSTEM":"UTC","MEAN_ELEMENT_THEORY":"SGP4","ECCENTRICITY":"0.00011050","REF_FRAME":"TEME","MEAN_ANOMALY":"260.9540","GP_ID":"187933093","RCS_SIZE":"LARGE","NORAD_CAT_ID":"46334","COUNTRY_CODE":"US","TLE_LINE1":"1 46334U 20062K   21295.61732036  .00001335  00000-0  10854-3 0  9990","TLE_LINE2":"2 46334  53.0551 335.1300 0001105  99.1574 260.9540 15.06377352 63574","ARG_OF_PERICENTER":"99.1574","LAUNCH_DATE":"2020-09-03","OBJECT_TYPE":"PAYLOAD","PERIOD":"95.594","INCLINATION":"53.0551","REV_AT_EPOCH":"6357","SEMIMAJOR_AXIS":"6925.418","MEAN_MOTION_DDOT":"0.0000000000000","SITE":"AFETR","CENTER_NAME":"EARTH","DECAY_DATE":null,"CLASSIFICATION_TYPE":"U","PERIAPSIS":"546.518","MEAN_MOTION_DOT":"0.00001335","EPOCH":"2021-10-22T14:48:56.479104","OBJECT_NAME":"STARLINK-1725","APOAPSIS":"548.048","RA_OF_ASC_NODE":"335.1300","EPHEMERIS_TYPE":"0","OBJECT_ID":"2020-062K","FILE":"3179071","MEAN_MOTION":"15.06377352","BSTAR":"0.00010854000000"},{"SITE":"AFETR","CENTER_NAME":"EARTH","PERIAPSIS":"546.443","DECAY_DATE":null,"CLASSIFICATION_TYPE":"U","MEAN_MOTION_DDOT":"0.0000000000000","SEMIMAJOR_AXIS":"6925.418","RA_OF_ASC_NODE":"355.4841","EPHEMERIS_TYPE":"0","FILE":"3178805","BSTAR":"0.00010798000000","MEAN_MOTION":"15.06377430","OBJECT_ID":"2020-062L","MEAN_MOTION_DOT":"0.00001326","EPOCH":"2021-10-22T12:56:10.867488","APOAPSIS":"548.123","OBJECT_NAME":"STARLINK-1727","ECCENTRICITY":"0.00012130","MEAN_ANOMALY":"285.8229","REF_FRAME":"TEME","COUNTRY_CODE":"US","GP_ID":"187906287","RCS_SIZE":"LARGE","NORAD_CAT_ID":"46335","MEAN_ELEMENT_THEORY":"SGP4","ELEMENT_SET_NO":"999","TIME_SYSTEM":"UTC","OBJECT_TYPE":"PAYLOAD","LAUNCH_DATE":"2020-09-03","INCLINATION":"53.0547","PERIOD":"95.594","REV_AT_EPOCH":"6346","TLE_LINE1":"1 46335U 20062L   21295.53901467  .00001326  00000-0  10798-3 0  9995","TLE_LINE2":"2 46335  53.0547 355.4841 0001213  74.2894 285.8229 15.06377430 63469","ARG_OF_PERICENTER":"74.2894"},{"APOAPSIS":"548.304","OBJECT_NAME":"STARLINK-1738","EPOCH":"2021-10-22T09:31:49.249056","MEAN_MOTION_DOT":"-0.00000163","RA_OF_ASC_NODE":"336.1298","FILE":"3178676","BSTAR":"0.00000793970000","MEAN_MOTION":"15.06385537","OBJECT_ID":"2020-062M","EPHEMERIS_TYPE":"0","MEAN_MOTION_DDOT":"0.0000000000000","SEMIMAJOR_AXIS":"6925.393","CENTER_NAME":"EARTH","SITE":"AFETR","PERIAPSIS":"546.211","DECAY_DATE":null,"CLASSIFICATION_TYPE":"U","TLE_LINE2":"2 46336  53.0559 336.1298 0001511  81.5402 278.5758 15.06385537 63533","TLE_LINE1":"1 46336U 20062M   21295.39709779 -.00000163  00000-0  79397-5 0  9993","ARG_OF_PERICENTER":"81.5402","INCLINATION":"53.0559","PERIOD":"95.593","LAUNCH_DATE":"2020-09-03","OBJECT_TYPE":"PAYLOAD","REV_AT_EPOCH":"6353","TIME_SYSTEM":"UTC","ELEMENT_SET_NO":"999","MEAN_ELEMENT_THEORY":"SGP4","ECCENTRICITY":"0.00015110","COUNTRY_CODE":"US","NORAD_CAT_ID":"46336","GP_ID":"187902747","RCS_SIZE":"LARGE","MEAN_ANOMALY":"278.5758","REF_FRAME":"TEME"},{"OBJECT_NAME":"STARLINK-1750","APOAPSIS":"548.059","MEAN_MOTION_DOT":"0.00001546","EPOCH":"2021-10-22T14:39:39.798720","OBJECT_ID":"2020-062N","FILE":"3179071","MEAN_MOTION":"15.06390911","BSTAR":"0.00012266000000","EPHEMERIS_TYPE":"0","RA_OF_ASC_NODE":"335.1621","MEAN_MOTION_DDOT":"0.0000000000000","SEMIMAJOR_AXIS":"6925.376","DECAY_DATE":null,"CLASSIFICATION_TYPE":"U","PERIAPSIS":"546.424","CENTER_NAME":"EARTH","SITE":"AFETR","ARG_OF_PERICENTER":"74.3456","TLE_LINE2":"2 46337  53.0543 335.1621 0001181  74.3456 285.7663 15.06390911 63579","TLE_LINE1":"1 46337U 20062N   21295.61087730  .00001546  00000-0  12266-3 0  9990","REV_AT_EPOCH":"6357","PERIOD":"95.593","INCLINATION":"53.0543","LAUNCH_DATE":"2020-09-03","OBJECT_TYPE":"PAYLOAD","TIME_SYSTEM":"UTC","ELEMENT_SET_NO":"999","MEAN_ELEMENT_THEORY":"SGP4","GP_ID":"187933343","RCS_SIZE":"LARGE","NORAD_CAT_ID":"46337","COUNTRY_CODE":"US","REF_FRAME":"TEME","MEAN_ANOMALY":"285.7663","ECCENTRICITY":"0.00011810"}];
